CCSDS_OMM_VERS = 2.0
CREATION_DATE  = 
ORIGINATOR     = 

OBJECT_NAME    = STARLINK-36606
OBJECT_ID      = 2026-033AA
CENTER_NAME    = EARTH
REF_FRAME      = TEME
TIME_SYSTEM    = UTC
MEAN_ELEMENT_THEORY = SGP/SGP4

EPOCH          = 2026-03-18T06:00:02.000160
MEAN_MOTION    = 15.54742265
ECCENTRICITY   = .00018508
INCLINATION    = 43.0001
RA_OF_ASC_NODE = 219.6101
ARG_OF_PERICENTER = 259.8882
MEAN_ANOMALY   = 65.4727

EPHEMERIS_TYPE = 0
CLASSIFICATION_TYPE = U
NORAD_CAT_ID   = 67845
ELEMENT_SET_NO = 999
REV_AT_EPOCH   = 604
BSTAR          = -.30958324E-1
MEAN_MOTION_DOT = -.1867177E-1
MEAN_MOTION_DDOT = 0

CCSDS_OMM_VERS = 2.0
CREATION_DATE  = 
ORIGINATOR     = 

OBJECT_NAME    = STARLINK-36658
OBJECT_ID      = 2026-033AB
CENTER_NAME    = EARTH
REF_FRAME      = TEME
TIME_SYSTEM    = UTC
MEAN_ELEMENT_THEORY = SGP/SGP4

EPOCH          = 2026-03-18T06:00:02.000160
MEAN_MOTION    = 15.50533194
ECCENTRICITY   = .00022666
INCLINATION    = 42.9999
RA_OF_ASC_NODE = 219.9978
ARG_OF_PERICENTER = 280.9984
MEAN_ANOMALY   = 246.8450

EPHEMERIS_TYPE = 0
CLASSIFICATION_TYPE = U
NORAD_CAT_ID   = 67846
ELEMENT_SET_NO = 999
REV_AT_EPOCH   = 604
BSTAR          = .11623395E-2
MEAN_MOTION_DOT = .68336E-3
MEAN_MOTION_DDOT = 0

CCSDS_OMM_VERS = 2.0
CREATION_DATE  = 
ORIGINATOR     = 

OBJECT_NAME    = STARLINK-36618
OBJECT_ID      = 2026-033AC
CENTER_NAME    = EARTH
REF_FRAME      = TEME
TIME_SYSTEM    = UTC
MEAN_ELEMENT_THEORY = SGP/SGP4

EPOCH          = 2026-03-18T06:00:02.000160
MEAN_MOTION    = 15.87994043
ECCENTRICITY   = .00016717
INCLINATION    = 42.9756
RA_OF_ASC_NODE = 215.8695
ARG_OF_PERICENTER = 280.2361
MEAN_ANOMALY   = 82.6441

EPHEMERIS_TYPE = 0
CLASSIFICATION_TYPE = U
NORAD_CAT_ID   = 67847
ELEMENT_SET_NO = 999
REV_AT_EPOCH   = 604
BSTAR          = -.25284824E-2
MEAN_MOTION_DOT = -.660763E-2
MEAN_MOTION_DDOT = 0

CCSDS_OMM_VERS = 2.0
CREATION_DATE  = 
ORIGINATOR     = 

OBJECT_NAME    = STARLINK-36660
OBJECT_ID      = 2026-033AD
CENTER_NAME    = EARTH
REF_FRAME      = TEME
TIME_SYSTEM    = UTC
MEAN_ELEMENT_THEORY = SGP/SGP4

EPOCH          = 2026-03-18T06:00:02.000160
MEAN_MOTION    = 15.50542603
ECCENTRICITY   = .00016172
INCLINATION    = 43.0001
RA_OF_ASC_NODE = 220.0833
ARG_OF_PERICENTER = 254.9039
MEAN_ANOMALY   = 237.9431

EPHEMERIS_TYPE = 0
CLASSIFICATION_TYPE = U
NORAD_CAT_ID   = 67848
ELEMENT_SET_NO = 999
REV_AT_EPOCH   = 604
BSTAR          = .11316815E-2
MEAN_MOTION_DOT = .66529E-3
MEAN_MOTION_DDOT = 0

CCSDS_OMM_VERS = 2.0
CREATION_DATE  = 
ORIGINATOR     = 

OBJECT_NAME    = STARLINK-36602
OBJECT_ID      = 2026-033AE
CENTER_NAME    = EARTH
REF_FRAME      = TEME
TIME_SYSTEM    = UTC
MEAN_ELEMENT_THEORY = SGP/SGP4

EPOCH          = 2026-03-18T06:00:02.000160
MEAN_MOTION    = 15.50520181
ECCENTRICITY   = .00021008
INCLINATION    = 42.9999
RA_OF_ASC_NODE = 220.0340
ARG_OF_PERICENTER = 274.5375
MEAN_ANOMALY   = 238.3179

EPHEMERIS_TYPE = 0
CLASSIFICATION_TYPE = U
NORAD_CAT_ID   = 67849
ELEMENT_SET_NO = 999
REV_AT_EPOCH   = 604
BSTAR          = .11751655E-2
MEAN_MOTION_DOT = .69067E-3
MEAN_MOTION_DDOT = 0

CCSDS_OMM_VERS = 2.0
CREATION_DATE  = 
ORIGINATOR     = 

OBJECT_NAME    = STARLINK-36840
OBJECT_ID      = 2026-034A
CENTER_NAME    = EARTH
REF_FRAME      = TEME
TIME_SYSTEM    = UTC
MEAN_ELEMENT_THEORY = SGP/SGP4

EPOCH          = 2026-03-17T15:13:02.827200
MEAN_MOTION    = 15.81106853
ECCENTRICITY   = .00017738
INCLINATION    = 53.1589
RA_OF_ASC_NODE = 171.5435
ARG_OF_PERICENTER = 223.9160
MEAN_ANOMALY   = 136.1723

EPHEMERIS_TYPE = 0
CLASSIFICATION_TYPE = U
NORAD_CAT_ID   = 67850
ELEMENT_SET_NO = 999
REV_AT_EPOCH   = 519
BSTAR          = .20602309E-2
MEAN_MOTION_DOT = .431528E-2
MEAN_MOTION_DDOT = 0

CCSDS_OMM_VERS = 2.0
CREATION_DATE  = 
ORIGINATOR     = 

OBJECT_NAME    = STARLINK-36348
OBJECT_ID      = 2026-034B
CENTER_NAME    = EARTH
REF_FRAME      = TEME
TIME_SYSTEM    = UTC
MEAN_ELEMENT_THEORY = SGP/SGP4

EPOCH          = 2026-03-17T18:14:02.898528
MEAN_MOTION    = 15.80893524
ECCENTRICITY   = .00010687
INCLINATION    = 53.1587
RA_OF_ASC_NODE = 170.9037
ARG_OF_PERICENTER = 87.7609
MEAN_ANOMALY   = 272.3536

EPHEMERIS_TYPE = 0
CLASSIFICATION_TYPE = U
NORAD_CAT_ID   = 67851
ELEMENT_SET_NO = 999
REV_AT_EPOCH   = 521
BSTAR          = .13162336E-2
MEAN_MOTION_DOT = .267546E-2
MEAN_MOTION_DDOT = 0

CCSDS_OMM_VERS = 2.0
CREATION_DATE  = 
ORIGINATOR     = 

OBJECT_NAME    = STARLINK-36276
OBJECT_ID      = 2026-034C
CENTER_NAME    = EARTH
REF_FRAME      = TEME
TIME_SYSTEM    = UTC
MEAN_ELEMENT_THEORY = SGP/SGP4

EPOCH          = 2026-03-17T00:00:32.361984
MEAN_MOTION    = 15.80955802
ECCENTRICITY   = .00019828
INCLINATION    = 53.1589
RA_OF_ASC_NODE = 174.7015
ARG_OF_PERICENTER = 80.0427
MEAN_ANOMALY   = 280.0819

EPHEMERIS_TYPE = 0
CLASSIFICATION_TYPE = U
NORAD_CAT_ID   = 67852
ELEMENT_SET_NO = 999
REV_AT_EPOCH   = 509
BSTAR          = .13598024E-2
MEAN_MOTION_DOT = .277545E-2
MEAN_MOTION_DDOT = 0

CCSDS_OMM_VERS = 2.0
CREATION_DATE  = 
ORIGINATOR     = 

OBJECT_NAME    = STARLINK-36785
OBJECT_ID      = 2026-034D
CENTER_NAME    = EARTH
REF_FRAME      = TEME
TIME_SYSTEM    = UTC
MEAN_ELEMENT_THEORY = SGP/SGP4

EPOCH          = 2026-03-17T16:40:51.030048
MEAN_MOTION    = 15.81105538
ECCENTRICITY   = .00009289
INCLINATION    = 53.1583
RA_OF_ASC_NODE = 171.2112
ARG_OF_PERICENTER = 181.8459
MEAN_ANOMALY   = 178.2560

EPHEMERIS_TYPE = 0
CLASSIFICATION_TYPE = U
NORAD_CAT_ID   = 67853
ELEMENT_SET_NO = 999
REV_AT_EPOCH   = 520
BSTAR          = .18620649E-2
MEAN_MOTION_DOT = .387956E-2
MEAN_MOTION_DDOT = 0

CCSDS_OMM_VERS = 2.0
CREATION_DATE  = 
ORIGINATOR     = 

OBJECT_NAME    = STARLINK-36608
OBJECT_ID      = 2026-034E
CENTER_NAME    = EARTH
REF_FRAME      = TEME
TIME_SYSTEM    = UTC
MEAN_ELEMENT_THEORY = SGP/SGP4

EPOCH          = 2026-03-17T18:10:48.478656
MEAN_MOTION    = 15.80925059
ECCENTRICITY   = .00011835
INCLINATION    = 53.1585
RA_OF_ASC_NODE = 170.8889
ARG_OF_PERICENTER = 39.4554
MEAN_ANOMALY   = 320.6554

EPHEMERIS_TYPE = 0
CLASSIFICATION_TYPE = U
NORAD_CAT_ID   = 67854
ELEMENT_SET_NO = 999
REV_AT_EPOCH   = 520
BSTAR          = .13817921E-2
MEAN_MOTION_DOT = .281784E-2
MEAN_MOTION_DDOT = 0

CCSDS_OMM_VERS = 2.0
CREATION_DATE  = 
ORIGINATOR     = 

OBJECT_NAME    = STARLINK-36838
OBJECT_ID      = 2026-034F
CENTER_NAME    = EARTH
REF_FRAME      = TEME
TIME_SYSTEM    = UTC
MEAN_ELEMENT_THEORY = SGP/SGP4

EPOCH          = 2026-03-17T18:09:43.680384
MEAN_MOTION    = 15.80910899
ECCENTRICITY   = .00014622
INCLINATION    = 53.1589
RA_OF_ASC_NODE = 170.8833
ARG_OF_PERICENTER = 81.2632
MEAN_ANOMALY   = 278.8556

EPHEMERIS_TYPE = 0
CLASSIFICATION_TYPE = U
NORAD_CAT_ID   = 67855
ELEMENT_SET_NO = 999
REV_AT_EPOCH   = 521
BSTAR          = .16088521E-2
MEAN_MOTION_DOT = .329841E-2
MEAN_MOTION_DDOT = 0

CCSDS_OMM_VERS = 2.0
CREATION_DATE  = 
ORIGINATOR     = 

OBJECT_NAME    = STARLINK-36843
OBJECT_ID      = 2026-034G
CENTER_NAME    = EARTH
REF_FRAME      = TEME
TIME_SYSTEM    = UTC
MEAN_ELEMENT_THEORY = SGP/SGP4

EPOCH          = 2026-03-17T15:05:29.636736
MEAN_MOTION    = 15.80907630
ECCENTRICITY   = .00012556
INCLINATION    = 53.1583
RA_OF_ASC_NODE = 171.5075
ARG_OF_PERICENTER = 66.4070
MEAN_ANOMALY   = 293.7085

EPHEMERIS_TYPE = 0
CLASSIFICATION_TYPE = U
NORAD_CAT_ID   = 67856
ELEMENT_SET_NO = 999
REV_AT_EPOCH   = 519
BSTAR          = .85208596E-3
MEAN_MOTION_DOT = .171121E-2
MEAN_MOTION_DDOT = 0

